LUR-1                   
1 60506U 24149AQ  26129.45628968  .00005250  00000+0  18562-3 0  9991
2 60506  97.3736 208.5800 0005685  87.6393 272.5498 15.29598595 96052
TANAGER-1               
1 60507U 24149AR  26129.22806528  .00010385  00000+0  22549-3 0  9992
2 60507  97.3255 223.3328 0006462  84.0365 276.1620 15.44537755 97026
EAGLEEYE                
1 60508U 24149AS  26129.22912307  .00059827  00000+0  61270-3 0  9994
2 60508  97.3723 220.6198 0002112  66.0358 294.1123 15.64805443 96832
FLOCK 4BE-29            
1 60509U 24149AT  26129.47561846  .00012702  00000+0  29107-3 0  9994
2 60509  97.3798 214.8066 0004040  89.5136 270.6574 15.42890406 96445
TRANSPORTER-11 OBJECT AU
1 60510U 24149AU  26129.45253097  .00011677  00000+0  30283-3 0  9997
2 60510  97.3723 212.8982 0004901  79.5229 280.6568 15.39153816 96355
FLOCK 4BE-2             
1 60511U 24149AV  26129.20957966  .00039826  00000+0  73906-3 0  9992
2 60511  97.3816 215.5232 0003821  89.8386 270.3303 15.48838865 96464
FLOCK 4BE-13            
1 60512U 24149AW  26129.20316177  .00012043  00000+0  29533-3 0  9995
2 60512  97.3713 213.2431 0004975  64.2676 295.9084 15.40854435 96368
FLOCK 4BE-27            
1 60513U 24149AX  26129.18832657  .00007412  00000+0  22923-3 0  9999
2 60513  97.3818 211.0424 0005458  88.6105 271.5763 15.33778151 96161
FLOCK 4BE-9             
1 60514U 24149AY  26129.49808830  .00012388  00000+0  31602-3 0  9992
2 60514  97.3781 213.4316 0004162  91.5942 268.5781 15.39646976 96363
FLOCK 4BE-6             
1 60516U 24149BA  26129.49763668  .00011452  00000+0  30313-3 0  9992
2 60516  97.3786 212.8589 0004869  87.5446 272.6356 15.38529557 96327
FLOCK 4BE-14            
1 60517U 24149BB  26129.44999794  .00012342  00000+0  31305-3 0  9990
2 60517  97.3688 212.9172 0005732  85.3867 274.8033 15.39814949 96364
FLOCK 4BE-1             
1 60518U 24149BC  26129.50503534  .00011876  00000+0  28681-3 0  9995
2 60518  97.3773 214.1146 0005265  85.5812 274.6037 15.41321646 96416
FLOCK 4BE-28            
1 60519U 24149BD  26129.18734170  .00015438  00000+0  34531-3 0  9991
2 60519  97.3742 214.3994 0005392  80.9775 279.2083 15.43561538 96425
IPERDRONE.0             
1 60520U 24149BE  26129.21125975  .00052168  00000+0  60560-3 0  9996
2 60520  97.3769 220.6674 0001954  55.4131 304.7311 15.61616490 96824
TRANSPORTER-11 OBJECT BF
1 60521U 24149BF  26129.23777857  .00107436  00000+0  81995-3 0  9995
2 60521  97.3776 222.6102 0000524  20.4598 339.6686 15.71878227 96946
CONNECTA IOT-2          
1 60522U 24149BG  26129.17347484  .00003900  00000+0  16557-3 0  9991
2 60522  97.3838 207.9203 0008180 101.2512 258.9645 15.23641931 95959
PTD-R (TYVAK-0127)      
1 60523U 24149BH  26129.23311704  .00159006  00000+0  61334-3 0  9997
2 60523  97.3756 226.5495 0001211 191.6510 168.4734 15.86880710 97223
CONNECTA IOT-4          
1 60524U 24149BJ  26129.19100657  .00015513  00000+0  38101-3 0  9996
2 60524  97.3791 213.1456 0006387  78.7837 281.4127 15.40739149 96329
ORESAT0.5               
1 60525U 24149BK  26129.49978410  .00014461  00000+0  32252-3 0  9992
2 60525  97.3711 214.9537 0006374  68.6848 291.5080 15.43658334 96506
DEIMOS                  
1 60526U 24149BL  26129.18722983  .00015285  00000+0  34995-3 0  9992
2 60526  97.3770 214.7953 0006570  75.0106 285.1868 15.42860218 96439
CUAVA-2                 
1 60527U 24149BM  26129.44233625  .00010031  00000+0  29524-3 0  9998
2 60527  97.3722 210.9240 0008023  77.4762 282.7378 15.35235103 96220
ERNST                   
1 60528U 24149BN  26129.47480774  .00011218  00000+0  30005-3 0  9995
2 60528  97.3799 212.9368 0007421  81.0033 279.2052 15.38197859 96320
TORO                    
1 60530U 24149BQ  26129.52146810  .00000889  00000+0  83773-4 0  9997
2 60530  97.6791 204.9135 0001658  94.7243 265.4167 14.96281206 94179
HYPSO-2                 
1 60531U 24149BR  26129.20912459  .00001871  00000+0  16090-3 0  9992
2 60531  97.6811 206.0412 0001887 117.1712 242.9704 14.98597098 94212
LEMU NGE                
1 60532U 24149BS  26129.42856749  .00002170  00000+0  20473-3 0  9999
2 60532  97.6843 205.1744 0002634 117.0241 243.1249 14.94794842 94166
LEMUR-2-STELLA          
1 60533U 24149BT  26129.48272589  .00008242  00000+0  49760-3 0  9996
2 60533  97.6731 211.7972 0001998 123.0855 237.0566 15.10969528 94651
SATELIOT_2              
1 60534U 24149BU  26129.44012336  .00001388  00000+0  12809-3 0  9993
2 60534  97.6835 205.1055 0001397 107.5039 252.6335 14.96220952 94178
NIGHTJAR                
1 60535U 24149BV  26129.47304003  .00002076  00000+0  17712-3 0  9995
2 60535  97.6832 206.7233 0000905 165.5160 194.6089 14.98791308137072
LEMUR-2-MARHISYAM       
1 60536U 24149BW  26129.44951212  .00009036  00000+0  55290-3 0  9999
2 60536  97.6868 212.1718 0001299 211.0500 149.0652 15.10456780 94634
SATELIOT_4              
1 60537U 24149BX  26129.45894630  .00001165  00000+0  10754-3 0  9992
2 60537  97.6734 204.6784 0002743 138.2066 221.9365 14.96526116 94183
