OBJECT_NAME,OBJECT_ID,EPOCH,MEAN_MOTION,ECCENTRICITY,INCLINATION,RA_OF_ASC_NODE,ARG_OF_PERICENTER,MEAN_ANOMALY,EPHEMERIS_TYPE,CLASSIFICATION_TYPE,NORAD_CAT_ID,ELEMENT_SET_NO,REV_AT_EPOCH,BSTAR,MEAN_MOTION_DOT,MEAN_MOTION_DDOT
LUR-1,2024-149AQ,2026-05-09T10:57:03.428352,15.29598595,.0005685,97.3736,208.5800,87.6393,272.5498,0,U,60506,999,9605,.18562E-3,.525E-4,0
TANAGER-1,2024-149AR,2026-05-09T05:28:24.840192,15.44537755,.00064626,97.3255,223.3328,84.0365,276.1620,0,U,60507,999,9702,.22548633E-3,.10385E-3,0
EAGLEEYE,2024-149AS,2026-05-09T05:29:56.233248,15.64805443,.0002112,97.3723,220.6198,66.0358,294.1123,0,U,60508,999,9683,.61270294E-3,.59827E-3,0
FLOCK 4BE-29,2024-149AT,2026-05-09T11:24:53.434944,15.42890406,.000404,97.3798,214.8066,89.5136,270.6574,0,U,60509,999,9644,.29107E-3,.12702E-3,0
TRANSPORTER-11 OBJECT AU,2024-149AU,2026-05-09T10:51:38.675808,15.39153816,.0004901,97.3723,212.8982,79.5229,280.6568,0,U,60510,999,9635,.30283E-3,.11677E-3,0
FLOCK 4BE-2,2024-149AV,2026-05-09T05:01:47.682624,15.48838865,.00038217,97.3816,215.5232,89.8386,270.3303,0,U,60511,999,9646,.73906182E-3,.39826E-3,0
FLOCK 4BE-13,2024-149AW,2026-05-09T04:52:33.176928,15.40854435,.00049753,97.3713,213.2431,64.2676,295.9084,0,U,60512,999,9636,.29532594E-3,.12043E-3,0
FLOCK 4BE-27,2024-149AX,2026-05-09T04:31:11.415648,15.33778151,.00054586,97.3818,211.0424,88.6105,271.5763,0,U,60513,999,9616,.22923456E-3,.7412E-4,0
FLOCK 4BE-9,2024-149AY,2026-05-09T11:57:14.829120,15.39646976,.0004162,97.3781,213.4316,91.5942,268.5781,0,U,60514,999,9636,.31602E-3,.12388E-3,0
FLOCK 4BE-6,2024-149BA,2026-05-09T11:56:35.809152,15.38529557,.0004869,97.3786,212.8589,87.5446,272.6356,0,U,60516,999,9632,.30313E-3,.11452E-3,0
FLOCK 4BE-14,2024-149BB,2026-05-09T10:47:59.822016,15.39814949,.0005732,97.3688,212.9172,85.3867,274.8033,0,U,60517,999,9636,.31305E-3,.12342E-3,0
FLOCK 4BE-1,2024-149BC,2026-05-09T12:07:15.053376,15.41321646,.0005265,97.3773,214.1146,85.5812,274.6037,0,U,60518,999,9641,.28681E-3,.11876E-3,0
FLOCK 4BE-28,2024-149BD,2026-05-09T04:29:46.322880,15.43561538,.00053923,97.3742,214.3994,80.9775,279.2083,0,U,60519,999,9642,.34530691E-3,.15438E-3,0
IPERDRONE.0,2024-149BE,2026-05-09T05:04:12.842400,15.61616490,.00019542,97.3769,220.6674,55.4131,304.7311,0,U,60520,999,9682,.60560476E-3,.52168E-3,0
TRANSPORTER-11 OBJECT BF,2024-149BF,2026-05-09T05:42:24.068448,15.71878227,.0000524,97.3776,222.6102,20.4598,339.6686,0,U,60521,999,9694,.81994568E-3,.107436E-2,0
CONNECTA IOT-2,2024-149BG,2026-05-09T04:09:48.226176,15.23641931,.00081805,97.3838,207.9203,101.2512,258.9645,0,U,60522,999,9595,.1655686E-3,.39E-4,0
PTD-R (TYVAK-0127),2024-149BH,2026-05-09T05:35:41.312256,15.86880710,.00012113,97.3756,226.5495,191.6510,168.4734,0,U,60523,999,9722,.6133361E-3,.159006E-2,0
CONNECTA IOT-4,2024-149BJ,2026-05-09T04:35:02.967648,15.40739149,.00063879,97.3791,213.1456,78.7837,281.4127,0,U,60524,999,9632,.38100779E-3,.15513E-3,0
ORESAT0.5,2024-149BK,2026-05-09T11:59:41.346240,15.43658334,.0006374,97.3711,214.9537,68.6848,291.5080,0,U,60525,999,9650,.32252E-3,.14461E-3,0
DEIMOS,2024-149BL,2026-05-09T04:29:36.657312,15.42860218,.00065704,97.3770,214.7953,75.0106,285.1868,0,U,60526,999,9643,.3499493E-3,.15285E-3,0
CUAVA-2,2024-149BM,2026-05-09T10:36:57.852000,15.35235103,.0008023,97.3722,210.9240,77.4762,282.7378,0,U,60527,999,9622,.29524E-3,.10031E-3,0
ERNST,2024-149BN,2026-05-09T11:23:43.388736,15.38197859,.0007421,97.3799,212.9368,81.0033,279.2052,0,U,60528,999,9632,.30005E-3,.11218E-3,0
TORO,2024-149BQ,2026-05-09T12:30:54.843840,14.96281206,.0001658,97.6791,204.9135,94.7243,265.4167,0,U,60530,999,9417,.83773E-4,.889E-5,0
HYPSO-2,2024-149BR,2026-05-09T05:01:08.364576,14.98597098,.00018874,97.6811,206.0412,117.1712,242.9704,0,U,60531,999,9421,.16089816E-3,.1871E-4,0
LEMU NGE,2024-149BS,2026-05-09T10:17:08.231136,14.94794842,.0002634,97.6843,205.1744,117.0241,243.1249,0,U,60532,999,9416,.20473E-3,.217E-4,0
LEMUR-2-STELLA,2024-149BT,2026-05-09T11:35:07.516896,15.10969528,.0001998,97.6731,211.7972,123.0855,237.0566,0,U,60533,999,9465,.4976E-3,.8242E-4,0
SATELIOT_2,2024-149BU,2026-05-09T10:33:46.658304,14.96220952,.0001397,97.6835,205.1055,107.5039,252.6335,0,U,60534,999,9417,.12809E-3,.1388E-4,0
NIGHTJAR,2024-149BV,2026-05-09T11:21:10.658592,14.98791308,.0000905,97.6832,206.7233,165.5160,194.6089,0,U,60535,999,13707,.17712E-3,.2076E-4,0
LEMUR-2-MARHISYAM,2024-149BW,2026-05-09T10:47:17.847168,15.10456780,.0001299,97.6868,212.1718,211.0500,149.0652,0,U,60536,999,9463,.5529E-3,.9036E-4,0
SATELIOT_4,2024-149BX,2026-05-09T11:00:52.960320,14.96526116,.0002743,97.6734,204.6784,138.2066,221.9365,0,U,60537,999,9418,.10754E-3,.1165E-4,0
